STARLINK-30826          
1 58188U 23167P   23325.50001157 -.01655110  00000+0 -30567-1 0  9995
2 58188  42.9996  35.0102 0001338 273.2034  19.2456 15.51399081  4551
STARLINK-30796          
1 58189U 23167Q   23325.50001157 -.01655235  00000+0 -30567-1 0  9994
2 58189  42.9996  35.0116 0001445 273.2824  18.5673 15.51400469  4560
STARLINK-30820          
1 58190U 23167R   23325.50001157 -.01654955  00000+0 -30566-1 0  9993
2 58190  42.9995  35.0085 0001242 270.3805  22.6672 15.51397941  4608
STARLINK-30785          
1 58191U 23167S   23325.50001157 -.01655408  00000+0 -30574-1 0  9997
2 58191  42.9995  35.0052 0001548 276.6877  17.5556 15.51396442  4553
STARLINK-30807          
1 58192U 23167T   23325.50001157 -.01655814  00000+0 -30584-1 0  9990
2 58192  42.9994  35.0070 0001270 277.4134  16.2324 15.51397406  4606
STARLINK-30822          
1 58193U 23167U   23325.50001157 -.01655235  00000+0 -30574-1 0  9997
2 58193  42.9995  35.0040 0001352 271.5024  23.3411 15.51394950  4606
STARLINK-30830          
1 58194U 23167V   23325.50001157 -.01656025  00000+0 -30593-1 0  9997
2 58194  42.9994  35.0021 0001182 275.5771  19.8640 15.51393964  4607
STARLINK-30827          
1 58195U 23167W   23325.50001157 -.01656990  00000+0 -30611-1 0  9990
2 58195  42.9994  35.0011 0001373 279.9125  16.1272 15.51393996  4505
STARLINK-30798          
1 58196U 23167X   23325.50001157 -.01659455  00000+0 -30661-1 0  9995
2 58196  42.9995  34.9995 0001450 271.6819  24.9561 15.51394005  4556
STARLINK-30762          
1 58197U 23167Y   23325.50001157 -.01657632  00000+0 -30623-1 0  9999
2 58197  42.9996  34.9978 0001608 276.0765  21.1584 15.51393013  4555
SZ-16 MODULE            
1 58198U 23077G   23325.33009657  .00029912  00000+0  32014-3 0  9993
2 58198  41.4830 278.9288 0009983 212.0039 148.0195 15.63144070  3308
TIANHUI 5A              
1 58199U 23168A   23325.45418101  .00000557  00000+0  68369-4 0  9993
2 58199  97.8278 330.3040 0001245 168.3121 191.8124 14.86888008  3046
TIANHUI 5B              
1 58201U 23168C   23325.45424928  .00000563  00000+0  69137-4 0  9992
2 58201  97.8275 330.3032 0001167 167.5091 192.6153 14.86886311  3044
TJS-10                  
1 58204U 23169A   23324.88585416  .00000011  00000+0  00000+0 0  9999
2 58204   0.1080  83.8417 0003033 242.7662 225.3260  1.00277241   126
