[{"OBJECT_NAME":"STARLINK-30826","OBJECT_ID":"2023-167P","EPOCH":"2023-11-21T12:00:00.999648","MEAN_MOTION":15.51399081,"ECCENTRICITY":0.0001338,"INCLINATION":42.9996,"RA_OF_ASC_NODE":35.0102,"ARG_OF_PERICENTER":273.2034,"MEAN_ANOMALY":19.2456,"EPHEMERIS_TYPE":0,"CLASSIFICATION_TYPE":"U","NORAD_CAT_ID":58188,"ELEMENT_SET_NO":999,"REV_AT_EPOCH":455,"BSTAR":-0.030567,"MEAN_MOTION_DOT":-0.0165511,"MEAN_MOTION_DDOT":0},{"OBJECT_NAME":"STARLINK-30796","OBJECT_ID":"2023-167Q","EPOCH":"2023-11-21T12:00:00.999648","MEAN_MOTION":15.51400469,"ECCENTRICITY":0.0001445,"INCLINATION":42.9996,"RA_OF_ASC_NODE":35.0116,"ARG_OF_PERICENTER":273.2824,"MEAN_ANOMALY":18.5673,"EPHEMERIS_TYPE":0,"CLASSIFICATION_TYPE":"U","NORAD_CAT_ID":58189,"ELEMENT_SET_NO":999,"REV_AT_EPOCH":456,"BSTAR":-0.030567,"MEAN_MOTION_DOT":-0.01655235,"MEAN_MOTION_DDOT":0},{"OBJECT_NAME":"STARLINK-30820","OBJECT_ID":"2023-167R","EPOCH":"2023-11-21T12:00:00.999648","MEAN_MOTION":15.51397941,"ECCENTRICITY":0.0001242,"INCLINATION":42.9995,"RA_OF_ASC_NODE":35.0085,"ARG_OF_PERICENTER":270.3805,"MEAN_ANOMALY":22.6672,"EPHEMERIS_TYPE":0,"CLASSIFICATION_TYPE":"U","NORAD_CAT_ID":58190,"ELEMENT_SET_NO":999,"REV_AT_EPOCH":460,"BSTAR":-0.030566,"MEAN_MOTION_DOT":-0.01654955,"MEAN_MOTION_DDOT":0},{"OBJECT_NAME":"STARLINK-30785","OBJECT_ID":"2023-167S","EPOCH":"2023-11-21T12:00:00.999648","MEAN_MOTION":15.51396442,"ECCENTRICITY":0.0001548,"INCLINATION":42.9995,"RA_OF_ASC_NODE":35.0052,"ARG_OF_PERICENTER":276.6877,"MEAN_ANOMALY":17.5556,"EPHEMERIS_TYPE":0,"CLASSIFICATION_TYPE":"U","NORAD_CAT_ID":58191,"ELEMENT_SET_NO":999,"REV_AT_EPOCH":455,"BSTAR":-0.030574,"MEAN_MOTION_DOT":-0.01655408,"MEAN_MOTION_DDOT":0},{"OBJECT_NAME":"STARLINK-30807","OBJECT_ID":"2023-167T","EPOCH":"2023-11-21T12:00:00.999648","MEAN_MOTION":15.51397406,"ECCENTRICITY":0.000127,"INCLINATION":42.9994,"RA_OF_ASC_NODE":35.007,"ARG_OF_PERICENTER":277.4134,"MEAN_ANOMALY":16.2324,"EPHEMERIS_TYPE":0,"CLASSIFICATION_TYPE":"U","NORAD_CAT_ID":58192,"ELEMENT_SET_NO":999,"REV_AT_EPOCH":460,"BSTAR":-0.030584,"MEAN_MOTION_DOT":-0.01655814,"MEAN_MOTION_DDOT":0},{"OBJECT_NAME":"STARLINK-30822","OBJECT_ID":"2023-167U","EPOCH":"2023-11-21T12:00:00.999648","MEAN_MOTION":15.5139495,"ECCENTRICITY":0.0001352,"INCLINATION":42.9995,"RA_OF_ASC_NODE":35.004,"ARG_OF_PERICENTER":271.5024,"MEAN_ANOMALY":23.3411,"EPHEMERIS_TYPE":0,"CLASSIFICATION_TYPE":"U","NORAD_CAT_ID":58193,"ELEMENT_SET_NO":999,"REV_AT_EPOCH":460,"BSTAR":-0.030574,"MEAN_MOTION_DOT":-0.01655235,"MEAN_MOTION_DDOT":0},{"OBJECT_NAME":"STARLINK-30830","OBJECT_ID":"2023-167V","EPOCH":"2023-11-21T12:00:00.999648","MEAN_MOTION":15.51393964,"ECCENTRICITY":0.0001182,"INCLINATION":42.9994,"RA_OF_ASC_NODE":35.0021,"ARG_OF_PERICENTER":275.5771,"MEAN_ANOMALY":19.864,"EPHEMERIS_TYPE":0,"CLASSIFICATION_TYPE":"U","NORAD_CAT_ID":58194,"ELEMENT_SET_NO":999,"REV_AT_EPOCH":460,"BSTAR":-0.030593,"MEAN_MOTION_DOT":-0.01656025,"MEAN_MOTION_DDOT":0},{"OBJECT_NAME":"STARLINK-30827","OBJECT_ID":"2023-167W","EPOCH":"2023-11-21T12:00:00.999648","MEAN_MOTION":15.51393996,"ECCENTRICITY":0.0001373,"INCLINATION":42.9994,"RA_OF_ASC_NODE":35.0011,"ARG_OF_PERICENTER":279.9125,"MEAN_ANOMALY":16.1272,"EPHEMERIS_TYPE":0,"CLASSIFICATION_TYPE":"U","NORAD_CAT_ID":58195,"ELEMENT_SET_NO":999,"REV_AT_EPOCH":450,"BSTAR":-0.030611,"MEAN_MOTION_DOT":-0.0165699,"MEAN_MOTION_DDOT":0},{"OBJECT_NAME":"STARLINK-30798","OBJECT_ID":"2023-167X","EPOCH":"2023-11-21T12:00:00.999648","MEAN_MOTION":15.51394005,"ECCENTRICITY":0.000145,"INCLINATION":42.9995,"RA_OF_ASC_NODE":34.9995,"ARG_OF_PERICENTER":271.6819,"MEAN_ANOMALY":24.9561,"EPHEMERIS_TYPE":0,"CLASSIFICATION_TYPE":"U","NORAD_CAT_ID":58196,"ELEMENT_SET_NO":999,"REV_AT_EPOCH":455,"BSTAR":-0.030661,"MEAN_MOTION_DOT":-0.01659455,"MEAN_MOTION_DDOT":0},{"OBJECT_NAME":"STARLINK-30762","OBJECT_ID":"2023-167Y","EPOCH":"2023-11-21T12:00:00.999648","MEAN_MOTION":15.51393013,"ECCENTRICITY":0.0001608,"INCLINATION":42.9996,"RA_OF_ASC_NODE":34.9978,"ARG_OF_PERICENTER":276.0765,"MEAN_ANOMALY":21.1584,"EPHEMERIS_TYPE":0,"CLASSIFICATION_TYPE":"U","NORAD_CAT_ID":58197,"ELEMENT_SET_NO":999,"REV_AT_EPOCH":455,"BSTAR":-0.030623,"MEAN_MOTION_DOT":-0.01657632,"MEAN_MOTION_DDOT":0},{"OBJECT_NAME":"SZ-16 MODULE","OBJECT_ID":"2023-077G","EPOCH":"2023-11-21T07:55:20.343648","MEAN_MOTION":15.6314407,"ECCENTRICITY":0.0009983,"INCLINATION":41.483,"RA_OF_ASC_NODE":278.9288,"ARG_OF_PERICENTER":212.0039,"MEAN_ANOMALY":148.0195,"EPHEMERIS_TYPE":0,"CLASSIFICATION_TYPE":"U","NORAD_CAT_ID":58198,"ELEMENT_SET_NO":999,"REV_AT_EPOCH":330,"BSTAR":0.00032014,"MEAN_MOTION_DOT":0.00029912,"MEAN_MOTION_DDOT":0},{"OBJECT_NAME":"TIANHUI 5A","OBJECT_ID":"2023-168A","EPOCH":"2023-11-21T10:54:01.239264","MEAN_MOTION":14.86888008,"ECCENTRICITY":0.0001245,"INCLINATION":97.8278,"RA_OF_ASC_NODE":330.304,"ARG_OF_PERICENTER":168.3121,"MEAN_ANOMALY":191.8124,"EPHEMERIS_TYPE":0,"CLASSIFICATION_TYPE":"U","NORAD_CAT_ID":58199,"ELEMENT_SET_NO":999,"REV_AT_EPOCH":304,"BSTAR":6.8369e-5,"MEAN_MOTION_DOT":5.57e-6,"MEAN_MOTION_DDOT":0},{"OBJECT_NAME":"TIANHUI 5B","OBJECT_ID":"2023-168C","EPOCH":"2023-11-21T10:54:07.137792","MEAN_MOTION":14.86886311,"ECCENTRICITY":0.0001167,"INCLINATION":97.8275,"RA_OF_ASC_NODE":330.3032,"ARG_OF_PERICENTER":167.5091,"MEAN_ANOMALY":192.6153,"EPHEMERIS_TYPE":0,"CLASSIFICATION_TYPE":"U","NORAD_CAT_ID":58201,"ELEMENT_SET_NO":999,"REV_AT_EPOCH":304,"BSTAR":6.9137e-5,"MEAN_MOTION_DOT":5.63e-6,"MEAN_MOTION_DDOT":0},{"OBJECT_NAME":"TJS-10","OBJECT_ID":"2023-169A","EPOCH":"2023-11-20T21:15:37.799424","MEAN_MOTION":1.00277241,"ECCENTRICITY":0.0003033,"INCLINATION":0.108,"RA_OF_ASC_NODE":83.8417,"ARG_OF_PERICENTER":242.7662,"MEAN_ANOMALY":225.326,"EPHEMERIS_TYPE":0,"CLASSIFICATION_TYPE":"U","NORAD_CAT_ID":58204,"ELEMENT_SET_NO":999,"REV_AT_EPOCH":12,"BSTAR":0,"MEAN_MOTION_DOT":1.1e-7,"MEAN_MOTION_DDOT":0}]
